[{"OBJECT_NAME":"STARLINK-3809","OBJECT_ID":"2022-062X","EPOCH":"2026-03-09T04:09:30.194496","MEAN_MOTION":15.08837001,"ECCENTRICITY":0.00012823,"INCLINATION":53.2191,"RA_OF_ASC_NODE":26.437,"ARG_OF_PERICENTER":90.8773,"MEAN_ANOMALY":269.2366,"EPHEMERIS_TYPE":0,"CLASSIFICATION_TYPE":"U","NORAD_CAT_ID":52851,"ELEMENT_SET_NO":999,"REV_AT_EPOCH":20584,"BSTAR":1.443992e-5,"MEAN_MOTION_DOT":-5.8e-7,"MEAN_MOTION_DDOT":0},{"OBJECT_NAME":"CZ-6A DEB","OBJECT_ID":"2022-151VT","EPOCH":"2026-03-09T17:17:01.578624","MEAN_MOTION":15.13055612,"ECCENTRICITY":0.00307053,"INCLINATION":98.6048,"RA_OF_ASC_NODE":145.9599,"ARG_OF_PERICENTER":176.0049,"MEAN_ANOMALY":184.143,"EPHEMERIS_TYPE":0,"CLASSIFICATION_TYPE":"U","NORAD_CAT_ID":55202,"ELEMENT_SET_NO":999,"REV_AT_EPOCH":17179,"BSTAR":0.0062201193,"MEAN_MOTION_DOT":0.00112789,"MEAN_MOTION_DDOT":0}]
